{"type": "FeatureCollection", "features": [{"type": "Feature", "properties": {"AREA": 163240510.457, "PERIMETER": 64306.154344, "WCOLGEN02_": 490, "WCOLGEN021": 869, "DPTO": "15", "NOMBRE_DPT": "BOYACA", "MPIO": "051", "NOMBRE_MPI": "ARCABUCO", "NOMBRE_CAB": "ARCABUCO", "CLASEMUN": "CM", "MPIOS": "15051", "ZONA": "ZONA07", "OF_REG": "DABOG", "REG_ZONAS": "DABOGZONA07", "HECTARES": 16324.051}, "geometry": {"type": "Polygon", "coordinates": [[[-73.5346653422998, 5.756559963897584], [-73.52776050754387, 5.75825986219196], [-73.5190626863121, 5.76346024297607], [-73.51676610919502, 5.772659931882966], [-73.51856664820863, 5.781960259182518], [-73.52376238070646, 5.790660263737653], [-73.52546373847466, 5.799260587380214], [-73.52716504641784, 5.816060677756999], [-73.52256435567206, 5.81896079982686], [-73.50815964097896, 5.811360335371253], [-73.50006468062504, 5.796860013138038], [-73.49146613247053, 5.787560121497742], [-73.48276071983653, 5.786459995460677], [-73.47296421374357, 5.79445990551072], [-73.46666216264178, 5.789259911027798], [-73.45976497910387, 5.787459792678527], [-73.45806357667784, 5.786260049241613], [-73.4528602281662, 5.775359898798617], [-73.44996101088424, 5.76775950534241], [-73.44876317130046, 5.765459691793077], [-73.4464590580289, 5.759159648685243], [-73.44416257856841, 5.752159602459229], [-73.44355985805781, 5.748659582662359], [-73.43496129199902, 5.742359501876182], [-73.42626353107957, 5.737659223621862], [-73.41765739111932, 5.722058828109186], [-73.40956241297103, 5.710459135541691], [-73.40036111979143, 5.701758632370066], [-73.39286125699007, 5.689558600663771], [-73.3910607066905, 5.682058351836762], [-73.38765792557781, 5.675658643459879], [-73.38475868640394, 5.671658403940415], [-73.38125671283547, 5.666458428000113], [-73.38125676785779, 5.657158114018355], [-73.38646024317835, 5.646758234749322], [-73.38706301828621, 5.64105807671021], [-73.38948931980701, 5.628103741943923], [-73.3921596920325, 5.628357914136378], [-73.40206293966193, 5.632458331402521], [-73.4100587333527, 5.644058498547676], [-73.42045790118819, 5.649258515261704], [-73.4296592086198, 5.655658734782619], [-73.43836460312883, 5.659758668642989], [-73.44126381530836, 5.668358520407276], [-73.4527616580049, 5.672458947912885], [-73.4613602614103, 5.672558658851963], [-73.4694628944417, 5.680058945618737], [-73.48675925669546, 5.68535914096261], [-73.50406326313556, 5.688259393589842], [-73.51446245556582, 5.689459188587164], [-73.52076452771274, 5.691259302586023], [-73.5207645069172, 5.694759318826605], [-73.52546432429747, 5.701659719529467], [-73.51966566710617, 5.723559582600324], [-73.5271655754316, 5.728259853889443], [-73.53576417295096, 5.729459638589042], [-73.53816743365718, 5.742159848959759], [-73.53696191569303, 5.747960141518174], [-73.5346653422998, 5.756559963897584]]]}}, {"type": "Feature", "properties": {"AREA": 89508644.0074, "PERIMETER": 40835.34528, "WCOLGEN02_": 499, "WCOLGEN021": 926, "DPTO": "15", "NOMBRE_DPT": "BOYACA", "MPIO": "293", "NOMBRE_MPI": "GACHANTIVA", "NOMBRE_CAB": "GACHANTIVA", "CLASEMUN": "CM", "MPIOS": "15293", "ZONA": "ZONA07", "OF_REG": "DABOG", "REG_ZONAS": "DABOGZONA07", "HECTARES": 8950.864}, "geometry": {"type": "Polygon", "coordinates": [[[-73.5346653422998, 5.756559963897584], [-73.53696191569303, 5.747960141518174], [-73.53816743365718, 5.742159848959759], [-73.53576417295096, 5.729459638589042], [-73.5271655754316, 5.728259853889443], [-73.51966566710617, 5.723559582600324], [-73.52546432429747, 5.701659719529467], [-73.5207645069172, 5.694759318826605], [-73.52076452771274, 5.691259302586023], [-73.53636715227528, 5.689559455733999], [-73.54216575725974, 5.676359565092003], [-73.54956659072458, 5.662459203873857], [-73.55596785851914, 5.66255937850798], [-73.56806845134722, 5.66545959995573], [-73.5772698216225, 5.661459431459191], [-73.5870662939116, 5.659159683086028], [-73.59626764722826, 5.658059664282704], [-73.59396342717628, 5.669659773129918], [-73.59687025879316, 5.680059703017448], [-73.59976939234782, 5.701960096101654], [-73.59976927857453, 5.721059982304979], [-73.600364290769, 5.737760405969148], [-73.60036422487622, 5.748760186011754], [-73.59806762311241, 5.762060712685341], [-73.59866272127819, 5.764360522936492], [-73.59516827953513, 5.775360758994722], [-73.58826340269641, 5.783960554201341], [-73.57786426197737, 5.774060307640003], [-73.56526772517236, 5.774060231549924], [-73.55256437416612, 5.773960494930911], [-73.5398610751201, 5.765259968228757], [-73.5346653422998, 5.756559963897584]]]}}, {"type": "Feature", "properties": {"AREA": 112920326.41, "PERIMETER": 50639.257034, "WCOLGEN02_": 521, "WCOLGEN021": 963, "DPTO": "15", "NOMBRE_DPT": "BOYACA", "MPIO": "407", "NOMBRE_MPI": "VILLA DE LEYVA", "NOMBRE_CAB": "VILLA DE LEYVA", "CLASEMUN": "CM", "MPIOS": "15407", "ZONA": "ZONA07", "OF_REG": "DABOG", "REG_ZONAS": "DABOGZONA07", "HECTARES": 11292.033}, "geometry": {"type": "Polygon", "coordinates": [[[-73.4613602614103, 5.672558658851963], [-73.46836427075597, 5.672558700460528], [-73.48046488612714, 5.671459176026969], [-73.48616429873886, 5.659358882025858], [-73.48313535190032, 5.655934189044204], [-73.49826494500938, 5.653058924879804], [-73.51326488174567, 5.642158895545915], [-73.51036570374944, 5.62765860780198], [-73.50976306010632, 5.610958664457107], [-73.52076507902811, 5.597658668576127], [-73.53106518028667, 5.58275838871962], [-73.52876870918956, 5.574058404002341], [-73.54896437710379, 5.572358582211364], [-73.55646432007815, 5.571258552817283], [-73.56686353349407, 5.568958807309], [-73.5783690379471, 5.567858801197905], [-73.58356472907016, 5.584059041988195], [-73.58996593996547, 5.593958784375474], [-73.59566526472264, 5.596858967358485], [-73.5991672768695, 5.59565877795292], [-73.59796936895174, 5.604959086439214], [-73.60086858159588, 5.613659075664568], [-73.60086853121884, 5.622259388105975], [-73.60146360214638, 5.629259424192075], [-73.60206629326052, 5.63785926348941], [-73.59626764722826, 5.658059664282704], [-73.5870662939116, 5.659159683086028], [-73.5772698216225, 5.661459431459191], [-73.56806845134722, 5.66545959995573], [-73.55596785851914, 5.66255937850798], [-73.54956659072458, 5.662459203873857], [-73.54216575725974, 5.676359565092003], [-73.53636715227528, 5.689559455733999], [-73.52076452771274, 5.691259302586023], [-73.51446245556582, 5.689459188587164], [-73.50406326313556, 5.688259393589842], [-73.48675925669546, 5.68535914096261], [-73.4694628944417, 5.680058945618737], [-73.4613602614103, 5.672558658851963]]]}}, {"type": "Feature", "properties": {"AREA": 30355495.2824, "PERIMETER": 25524.045682, "WCOLGEN02_": 536, "WCOLGEN021": 961, "DPTO": "15", "NOMBRE_DPT": "BOYACA", "MPIO": "762", "NOMBRE_MPI": "SORA", "NOMBRE_CAB": "SORA", "CLASEMUN": "CM", "MPIOS": "15762", "ZONA": "ZONA07", "OF_REG": "DABOG", "REG_ZONAS": "DABOGZONA07", "HECTARES": 3035.55}, "geometry": {"type": "Polygon", "coordinates": [[[-73.45675995326135, 5.610658419817508], [-73.45906413783163, 5.604958271534393], [-73.46366491517321, 5.587058150212973], [-73.47056223410823, 5.565658026836004], [-73.48846144584957, 5.552458208408475], [-73.51376143808879, 5.534158137276664], [-73.51786618449447, 5.534158161057326], [-73.51836209436075, 5.537057836309994], [-73.52306188275267, 5.549158190344869], [-73.5258619137939, 5.557258311195319], [-73.52536591346394, 5.569958501854256], [-73.52876870918956, 5.574058404002341], [-73.51036600421462, 5.576258442783421], [-73.5040638778166, 5.583758167312035], [-73.49246677480053, 5.592358410718852], [-73.4838605175682, 5.596358105843833], [-73.47696328919623, 5.602158363994269], [-73.46425989909055, 5.608958524366953], [-73.45675995326135, 5.610658419817508]]]}}, {"type": "Feature", "properties": {"AREA": 221243980.503, "PERIMETER": 65140.59554, "WCOLGEN02_": 537, "WCOLGEN021": 867, "DPTO": "15", "NOMBRE_DPT": "BOYACA", "MPIO": "001", "NOMBRE_MPI": "TUNJA", "NOMBRE_CAB": "TUNJA", "CLASEMUN": "CM", "MPIOS": "15001", "ZONA": "ZONA07", "OF_REG": "DABOG", "REG_ZONAS": "DABOGZONA07", "HECTARES": 22124.398}, "geometry": {"type": "Polygon", "coordinates": [[[-73.45675995326135, 5.610658419817508], [-73.45156420551143, 5.604358361058999], [-73.44296568287665, 5.590457907975711], [-73.42965960201249, 5.588657753937865], [-73.42096182994851, 5.585758030771689], [-73.39856121995051, 5.583857686935407], [-73.395059219043, 5.583257800044789], [-73.39106128810279, 5.583257776651318], [-73.38185989951818, 5.590757483223568], [-73.38066208003609, 5.584957655126702], [-73.3789606874354, 5.582057496225474], [-73.37255945057589, 5.57685750417352], [-73.36915668222542, 5.568157514485463], [-73.36795887947508, 5.55945753778674], [-73.36676105286243, 5.554857442722144], [-73.35875759525581, 5.549057098542275], [-73.3494570927079, 5.544357296652533], [-73.34775572320054, 5.537456916467947], [-73.33856200846944, 5.537456863086931], [-73.33216078842409, 5.529356723133891], [-73.32815526507935, 5.522957013195083], [-73.32646152855956, 5.515456767082913], [-73.3281553215943, 5.513156494611336], [-73.32985677131785, 5.50615647467998], [-73.33155820029677, 5.502756606297839], [-73.33275606334253, 5.501056674109241], [-73.33905815526039, 5.499256634688746], [-73.34655812634041, 5.492956651122024], [-73.3575601280245, 5.48205659994324], [-73.3644573742302, 5.47285646419053], [-73.36966084396104, 5.463056452380209], [-73.37766442414342, 5.447456636324582], [-73.3822575157308, 5.438856353613359], [-73.3926643661657, 5.434856191605675], [-73.41166223298038, 5.423356318995362], [-73.42605936864116, 5.422256328003186], [-73.44056331607236, 5.421756680742534], [-73.44166200396087, 5.418256672011306], [-73.45606675952479, 5.418956756777562], [-73.46016384999531, 5.423556867926225], [-73.46186525002123, 5.425256816787207], [-73.46246034209659, 5.428756835241907], [-73.46416168596721, 5.440356963102745], [-73.46296377684816, 5.450156998669068], [-73.46356646886517, 5.458856971711331], [-73.46706083759223, 5.459957064589827], [-73.46766351982116, 5.470356977046659], [-73.4682661819091, 5.484257381761426], [-73.4664655078466, 5.498057159331858], [-73.46706051629235, 5.51605744619815], [-73.4688610282688, 5.530457588249775], [-73.47116510609531, 5.54315779407205], [-73.47976368994186, 5.546657859545878], [-73.48846144584957, 5.552458208408475], [-73.47056223410823, 5.565658026836004], [-73.46366491517321, 5.587058150212973], [-73.45906413783163, 5.604958271534393], [-73.45675995326135, 5.610658419817508]]]}}, {"type": "Feature", "properties": {"AREA": 65534642.8289, "PERIMETER": 35939.602245, "WCOLGEN02_": 542, "WCOLGEN021": 964, "DPTO": "15", "NOMBRE_DPT": "BOYACA", "MPIO": "638", "NOMBRE_MPI": "SACHICA", "NOMBRE_CAB": "SACHICA", "CLASEMUN": "CM", "MPIOS": "15638", "ZONA": "ZONA07", "OF_REG": "DABOG", "REG_ZONAS": "DABOGZONA07", "HECTARES": 6553.464}, "geometry": {"type": "Polygon", "coordinates": [[[-73.5991672768695, 5.59565877795292], [-73.59566526472264, 5.596858967358485], [-73.58996593996547, 5.593958784375474], [-73.58356472907016, 5.584059041988195], [-73.5783690379471, 5.567858801197905], [-73.56686353349407, 5.568958807309], [-73.55646432007815, 5.571258552817283], [-73.54896437710379, 5.572358582211364], [-73.52876870918956, 5.574058404002341], [-73.52536591346394, 5.569958501854256], [-73.5258619137939, 5.557258311195319], [-73.52306188275267, 5.549158190344869], [-73.51836209436075, 5.537057836309994], [-73.51786618449447, 5.534158161057326], [-73.51376143808879, 5.534158137276664], [-73.5201627627173, 5.524358130541681], [-73.5287690734397, 5.511057644036021], [-73.53966423252638, 5.505358022003758], [-73.55126892531125, 5.50365767253297], [-73.56736747650686, 5.501957825730083], [-73.57606528283904, 5.499157863200865], [-73.57656881273627, 5.503757954926606], [-73.58297005426758, 5.508458217359668], [-73.59736715302823, 5.514258122259209], [-73.59856497327729, 5.520058427986217], [-73.59856491337815, 5.530458339056536], [-73.60136494194316, 5.539058666967004], [-73.59967105467479, 5.557558673649934], [-73.59626821110385, 5.561658536413489], [-73.59916744793424, 5.566258642511911], [-73.59916737763925, 5.578358970628098], [-73.59916730369272, 5.591059165424189], [-73.5991672768695, 5.59565877795292]]]}}, {"type": "Feature", "properties": {"AREA": 280870406.708, "PERIMETER": 86684.68891, "WCOLGEN02_": 705, "WCOLGEN021": 956, "DPTO": "15", "NOMBRE_DPT": "BOYACA", "MPIO": "690", "NOMBRE_MPI": "SANTA MARIA", "NOMBRE_CAB": "SANTA MARIA", "CLASEMUN": "CM", "MPIOS": "15690", "ZONA": "ZONA06", "OF_REG": "DABOG", "REG_ZONAS": "DABOGZONA06", "HECTARES": 28087.041}, "geometry": {"type": "Polygon", "coordinates": [[[-73.235061657997, 4.92995118483326], [-73.23265839051533, 4.916651125125677], [-73.23326120315956, 4.90275121526033], [-73.23616053347413, 4.889451183234785], [-73.23435997113049, 4.883151151825618], [-73.23385648582438, 4.869250759887954], [-73.23665667394066, 4.847350902080246], [-73.24186019793166, 4.825350443376937], [-73.232658965498, 4.803350389113014], [-73.22455637149524, 4.787150156662645], [-73.22420540876878, 4.787029991001103], [-73.2227710692438, 4.780556869121529], [-73.22113842049762, 4.761750734535161], [-73.22113850165644, 4.745397954622593], [-73.22277129668458, 4.734768703626623], [-73.22277133303017, 4.727410095872323], [-73.22767729463881, 4.706151125510829], [-73.22767736282235, 4.692251215566955], [-73.22767742281599, 4.679986392961131], [-73.22113887135376, 4.670174884388832], [-73.21868218382545, 4.658727832088459], [-73.21540909718036, 4.653004296017079], [-73.20478104405734, 4.646462942169276], [-73.20233193961634, 4.644577978600716], [-73.23085911190564, 4.653248990847081], [-73.23886257645971, 4.65844945578768], [-73.25276375635744, 4.662549401113836], [-73.25795950022054, 4.670649521572726], [-73.2573643489611, 4.678749613739917], [-73.25615879871455, 4.692549858254198], [-73.25966074263545, 4.704749848324414], [-73.27346273737606, 4.70884979410156], [-73.27865852621088, 4.707749747939264], [-73.29306328817282, 4.706649747256245], [-73.31266383396417, 4.705549772187188], [-73.32306303091698, 4.705549823532017], [-73.3311656950484, 4.707950280507903], [-73.33466003552711, 4.714850185310699], [-73.33926065038817, 4.726450316334766], [-73.34036691096517, 4.733950552218946], [-73.34326613949398, 4.740850454402832], [-73.35136113398798, 4.751350531402117], [-73.36286659428106, 4.758350613381014], [-73.34846183415286, 4.758850747603176], [-73.35256652255039, 4.770350740443553], [-73.35886090763398, 4.783750955591718], [-73.35316147863671, 4.801550922031872], [-73.33586500736399, 4.817650892025064], [-73.32486298168176, 4.834951102237624], [-73.31685942692026, 4.847651243080752], [-73.31456282117865, 4.864351154806505], [-73.31566144489673, 4.873051123488658], [-73.31106073484217, 4.880551331243736], [-73.30646002474712, 4.888051538982418], [-73.29725861927432, 4.900151330890516], [-73.29265791830025, 4.905851463971884], [-73.27996216209276, 4.913351629890015], [-73.26616012646303, 4.917351300556147], [-73.25286164710437, 4.921351450556247], [-73.24135613277635, 4.925351132883397], [-73.235061657997, 4.92995118483326]]]}}, {"type": "Feature", "properties": {"AREA": 82088295.8828, "PERIMETER": 39172.619183, "WCOLGEN02_": 744, "WCOLGEN021": 791, "DPTO": "25", "NOMBRE_DPT": "CUNDINAMARCA", "MPIO": "797", "NOMBRE_MPI": "TENA", "NOMBRE_CAB": "TENA", "CLASEMUN": "CM", "MPIOS": "25797", "ZONA": "ZONA02", "OF_REG": "DABOG", "REG_ZONAS": "DABOGZONA02", "HECTARES": 8208.83}, "geometry": {"type": "Polygon", "coordinates": [[[-74.38499477129017, 4.716955364511809], [-74.37629696575378, 4.718655261490896], [-74.36769836811014, 4.715755069969071], [-74.35899301478763, 4.70065489108964], [-74.349799405522, 4.676954876215216], [-74.34399333665927, 4.657854490445492], [-74.33819489710518, 4.638754582148425], [-74.3352956702695, 4.630654464312985], [-74.33469295019924, 4.626054373028158], [-74.33819495786601, 4.626054389863873], [-74.3473963056719, 4.627254166915433], [-74.35319480923604, 4.633054492947879], [-74.36179342610552, 4.631954461337764], [-74.36879744691076, 4.6308544220344], [-74.37509957084141, 4.62335469148905], [-74.38369820744626, 4.618154300932239], [-74.39119813349451, 4.621654352502215], [-74.40220007560319, 4.623454481477501], [-74.4057020863768, 4.622854631848973], [-74.40449665173435, 4.612454715846653], [-74.40789949327619, 4.608454509933289], [-74.41539944428271, 4.60675460635025], [-74.41659725459947, 4.616054449319937], [-74.42299844299268, 4.633954628554422], [-74.42579846791361, 4.645554762475894], [-74.42579840694627, 4.658254956161925], [-74.42759895649263, 4.668055009327722], [-74.42989543300459, 4.677855065034927], [-74.4286975281486, 4.688255447216754], [-74.42820158995833, 4.690555250938034], [-74.41900020752446, 4.696355505042567], [-74.41489544677627, 4.698555154451647], [-74.39469972384519, 4.708355577270451], [-74.38499477129017, 4.716955364511809]]]}}, {"type": "Feature", "properties": {"AREA": 157196170.329, "PERIMETER": 52999.892866, "WCOLGEN02_": 754, "WCOLGEN021": 726, "DPTO": "25", "NOMBRE_DPT": "CUNDINAMARCA", "MPIO": "386", "NOMBRE_MPI": "LA MESA", "NOMBRE_CAB": "LA MESA", "CLASEMUN": "CM", "MPIOS": "25386", "ZONA": "ZONA02", "OF_REG": "DABOG", "REG_ZONAS": "DABOGZONA02", "HECTARES": 15719.617}, "geometry": {"type": "Polygon", "coordinates": [[[-74.43969948462839, 4.687155427615481], [-74.43680022160896, 4.686555547006261], [-74.4339009556971, 4.6865555328999], [-74.4286975281486, 4.688255447216754], [-74.42989543300459, 4.677855065034927], [-74.42759895649263, 4.668055009327722], [-74.42579840694627, 4.658254956161925], [-74.42579846791361, 4.645554762475894], [-74.42299844299268, 4.633954628554422], [-74.41659725459947, 4.616054449319937], [-74.41539944428271, 4.60675460635025], [-74.42009930919328, 4.606254422236272], [-74.43100209949932, 4.601054519204506], [-74.43960073645673, 4.595854605083058], [-74.45810269342991, 4.582654293433417], [-74.46730405848662, 4.580454667911003], [-74.48460051259804, 4.571254572419813], [-74.49609845120047, 4.558554433457195], [-74.5036060568417, 4.551654574110786], [-74.50819911551535, 4.549354312954655], [-74.51510390583496, 4.558054793566479], [-74.51980372792741, 4.566754787088938], [-74.53249935240518, 4.589955089264079], [-74.54510347297929, 4.602155137155373], [-74.55840190818927, 4.610855172654849], [-74.57050247493991, 4.622455352426344], [-74.5751031556609, 4.621855507927473], [-74.57570587595268, 4.626455600328828], [-74.57460717894361, 4.632255417695476], [-74.57170786292595, 4.64265579283411], [-74.56530653014322, 4.654755614099524], [-74.55840167939228, 4.658755803795002], [-74.55150446360571, 4.661655920233688], [-74.54060168026743, 4.66505574710639], [-74.53420040565004, 4.665055716134422], [-74.52560178720266, 4.66615574775239], [-74.52270254074432, 4.662055374111407], [-74.51170058047822, 4.663755737483928], [-74.50709990290709, 4.66375571522408], [-74.49620474103624, 4.668955618360592], [-74.48640061644247, 4.674655256516664], [-74.47539865125107, 4.677455692864338], [-74.46329801647529, 4.680355306830055], [-74.45579806494426, 4.682055210068059], [-74.44490292335126, 4.683155230267827], [-74.43969948462839, 4.687155427615481]]]}}, {"type": "Feature", "properties": {"AREA": 89478646.5614, "PERIMETER": 39276.192387, "WCOLGEN02_": 761, "WCOLGEN021": 753, "DPTO": "25", "NOMBRE_DPT": "CUNDINAMARCA", "MPIO": "645", "NOMBRE_MPI": "SAN ANTONIO DEL TEQUENDAMA", "NOMBRE_CAB": "SAN ANTONIO DE TEQUENDAMA", "CLASEMUN": "CM", "MPIOS": "25645", "ZONA": "ZONA02", "OF_REG": "DABOG", "REG_ZONAS": "DABOGZONA02", "HECTARES": 8947.865}, "geometry": {"type": "Polygon", "coordinates": [[[-74.41539944428271, 4.60675460635025], [-74.40789949327619, 4.608454509933289], [-74.40449665173435, 4.612454715846653], [-74.4057020863768, 4.622854631848973], [-74.40220007560319, 4.623454481477501], [-74.39119813349451, 4.621654352502215], [-74.38369820744626, 4.618154300932239], [-74.37509957084141, 4.62335469148905], [-74.36879744691076, 4.6308544220344], [-74.36179342610552, 4.631954461337764], [-74.35319480923604, 4.633054492947879], [-74.3473963056719, 4.627254166915433], [-74.33819495786601, 4.626054389863873], [-74.33469295019924, 4.626054373028158], [-74.33239646532712, 4.617954258255735], [-74.32149373657529, 4.610453968737297], [-74.31459656403067, 4.60465411473711], [-74.31169731798947, 4.600554219242803], [-74.30529604253415, 4.601053918322794], [-74.30819532420131, 4.59765405364458], [-74.3116973507568, 4.593653848626516], [-74.31169737304575, 4.588954100689347], [-74.31109464427054, 4.586154085662594], [-74.30989681208551, 4.581453855217722], [-74.31509264175781, 4.572853570212146], [-74.31739679772944, 4.572253714805837], [-74.32149395028604, 4.565353840627769], [-74.32199751777809, 4.563053560582632], [-74.31969339712211, 4.556153656081464], [-74.31799965140469, 4.548553751531144], [-74.31799967300346, 4.543953663604995], [-74.32719341543047, 4.539953485422457], [-74.33699751885278, 4.538253592461061], [-74.34510020560798, 4.537753424151611], [-74.35309607503727, 4.537753461854612], [-74.36179386638776, 4.538953712436431], [-74.3704001100248, 4.538453546484766], [-74.37739650672609, 4.536153773808573], [-74.37909790715459, 4.538453587493675], [-74.38140204685297, 4.541353747255803], [-74.38539994371007, 4.549453869670992], [-74.39470044782985, 4.556954150922751], [-74.40390174442904, 4.569154180172291], [-74.40850236955862, 4.580154455071135], [-74.40789954790156, 4.596954526816489], [-74.41539944428271, 4.60675460635025]]]}}, {"type": "Feature", "properties": {"AREA": 120209810.371, "PERIMETER": 44710.096656, "WCOLGEN02_": 770, "WCOLGEN021": 703, "DPTO": "25", "NOMBRE_DPT": "CUNDINAMARCA", "MPIO": "245", "NOMBRE_MPI": "EL COLEGIO", "NOMBRE_CAB": "EL COLEGIO", "CLASEMUN": "CM", "MPIOS": "25245", "ZONA": "ZONA02", "OF_REG": "DABOG", "REG_ZONAS": "DABOGZONA02", "HECTARES": 12020.981}, "geometry": {"type": "Polygon", "coordinates": [[[-74.41539944428271, 4.60675460635025], [-74.40789954790156, 4.596954526816489], [-74.40850236955862, 4.580154455071135], [-74.40390174442904, 4.569154180172291], [-74.39470044782985, 4.556954150922751], [-74.38539994371007, 4.549453869670992], [-74.38140204685297, 4.541353747255803], [-74.37909790715459, 4.538453587493675], [-74.37739650672609, 4.536153773808573], [-74.38659787417303, 4.533253668267223], [-74.39349512294196, 4.522953928258116], [-74.39979725174436, 4.514253511186782], [-74.4032993024382, 4.505053828118541], [-74.4061985975001, 4.49875333742051], [-74.4101965700136, 4.490653729588615], [-74.41189799192149, 4.488353455046401], [-74.42060341349439, 4.489553705208983], [-74.43149856282778, 4.486653607101204], [-74.43960125032842, 4.48615343830036], [-74.44590334162858, 4.485553601266454], [-74.45569981370592, 4.484453573938485], [-74.46490118124842, 4.481653604465786], [-74.47240112734319, 4.48105377295343], [-74.47760453853638, 4.482853873205907], [-74.48280031502289, 4.485753569580026], [-74.48569957318935, 4.48745399931163], [-74.48510444726776, 4.490353668761434], [-74.48510442827651, 4.494454027504662], [-74.48460083676275, 4.501953785901832], [-74.48800363538471, 4.507154233609298], [-74.48920142301913, 4.521554371428498], [-74.49210064847938, 4.530254355763321], [-74.5052998953196, 4.539554255190232], [-74.50819911551535, 4.549354312954655], [-74.5036060568417, 4.551654574110786], [-74.49609845120047, 4.558554433457195], [-74.48460051259804, 4.571254572419813], [-74.46730405848662, 4.580454667911003], [-74.45810269342991, 4.582654293433417], [-74.43960073645673, 4.595854605083058], [-74.43100209949932, 4.601054519204506], [-74.42009930919328, 4.606254422236272], [-74.41539944428271, 4.60675460635025]]]}}]}